NORAD_CAT_ID,OBJECT_NAME,OBJECT_TYPE,EPOCH,MEAN_MOTION,ECCENTRICITY,INCLINATION,RA_OF_ASC_NODE,ARG_OF_PERICENTER,MEAN_ANOMALY,BSTAR,MEAN_MOTION_DOT,MEAN_MOTION_DDOT,TLE_LINE0,TLE_LINE1,TLE_LINE2,SEMIMAJOR_AXIS,PERIOD,APOGEE,PERIGEE,DECAYED
54771.0,STARLINK-5451,PAYLOAD,2023-09-13 00:26:49,15.08847261,0.0001128,53.2159,158.1034,83.184,276.928,0.00010666,1.41e-05,0.0,0 STARLINK-5451,1 54771U 22175P   23256.01863267  .00001410  00000-0  10666-3 0  9990,2 54771  53.2159 158.1034 0001128  83.1840 276.9280 15.08847261 40650,6917.858,95.437,540.504,538.943,0.0
54771.0,STARLINK-5451,PAYLOAD,2023-09-13 21:06:50,15.08843638,9.18e-05,53.2182,154.2407,78.1121,281.9974,9.1025e-05,1.161e-05,0.0,0 STARLINK-5451,1 54771U 22175P   23256.87975291  .00001161  00000-0  91025-4 0  9997,2 54771  53.2182 154.2407 0000918  78.1121 281.9974 15.08843638 42943,6917.869,95.437,540.369,539.099,0.0
54771.0,STARLINK-5451,PAYLOAD,2023-09-14 01:52:59,15.08852627,0.000114,53.2165,153.3453,88.3954,271.7169,0.00015985,2.258e-05,0.0,0 STARLINK-5451,1 54771U 22175P   23257.07846431  .00002258  00000-0  15985-3 0  9991,2 54771  53.2165 153.3453 0001140  88.3954 271.7169 15.08852627 40815,6917.842,95.437,540.495,538.918,0.0
54771.0,STARLINK-5451,PAYLOAD,2023-09-14 03:28:22,15.08852264,0.0001136,53.217,153.049,92.8519,267.2604,0.00016507,2.341e-05,0.0,0 STARLINK-5451,1 54771U 22175P   23257.14470413  .00002341  00000-0  16507-3 0  9996,2 54771  53.2170 153.0490 0001136  92.8519 267.2604 15.08852264 42982,6917.843,95.437,540.494,538.922,0.0
54771.0,STARLINK-5451,PAYLOAD,2023-09-14 17:46:52,15.08833749,0.0001308,53.2164,150.3715,85.174,274.9402,-8.1452e-05,-1.584e-05,0.0,0 STARLINK-5451,1 54771U 22175P   23257.74088645 -.00001584  00000-0 -81452-4 0  9996,2 54771  53.2164 150.3715 0001308  85.1740 274.9402 15.08833749 40916,6917.899,95.438,540.669,538.86,0.0
54771.0,STARLINK-5451,PAYLOAD,2023-09-14 20:57:39,15.08828934,0.0001248,53.2171,149.7787,81.4618,278.6515,-0.00011117,-2.056e-05,0.0,0 STARLINK-5451,1 54771U 22175P   23257.87337076 -.00002056  00000-0 -11117-3 0  9990,2 54771  53.2171 149.7787 0001248  81.4618 278.6515 15.08828934 43099,6917.914,95.438,540.643,538.916,0.0
54771.0,STARLINK-5451,PAYLOAD,2023-09-15 03:19:11,15.08831096,0.0001221,53.2163,148.5878,81.7337,278.3793,-9.3409e-05,-1.774e-05,0.0,0 STARLINK-5451,1 54771U 22175P   23258.13833025 -.00001774  00000-0 -93409-4 0  9996,2 54771  53.2163 148.5878 0001221  81.7337 278.3793 15.08831096 43133,6917.908,95.438,540.617,538.928,0.0
54771.0,STARLINK-5451,PAYLOAD,2023-09-15 17:37:39,15.08843572,0.0001248,53.2169,145.9118,84.2841,275.8294,-3.2777e-05,-8.1e-06,0.0,0 STARLINK-5451,1 54771U 22175P   23258.73448277 -.00000810  00000-0 -32777-4 0  9994,2 54771  53.2169 145.9118 0001248  84.2841 275.8294 15.08843572 41064,6917.869,95.437,540.598,538.871,0.0
54771.0,STARLINK-5451,PAYLOAD,2023-09-16 01:34:34,15.08852968,0.0001264,53.217,144.4251,85.3427,274.7709,5.6656e-05,6.14e-06,0.0,0 STARLINK-5451,1 54771U 22175P   23259.06567323  .00000614  00000-0  56656-4 0  9997,2 54771  53.2170 144.4251 0001264  85.3427 274.7709 15.08852968 41112,6917.841,95.437,540.58,538.831,0.0
54771.0,STARLINK-5451,PAYLOAD,2023-09-17 01:25:22,15.08832046,0.0001403,53.2169,139.9652,81.7342,278.3809,0.0001541,2.165e-05,0.0,0 STARLINK-5451,1 54771U 22175P   23260.05928721  .00002165  00000-0  15410-3 0  9996,2 54771  53.2169 139.9652 0001403  81.7342 278.3809 15.08832046 41267,6917.905,95.438,540.74,538.799,0.0
54771.0,STARLINK-5451,PAYLOAD,2023-09-18 01:16:08,15.0885052,0.0001339,53.2166,135.5042,86.6878,273.4268,3.9476e-05,3.41e-06,0.0,0 STARLINK-5451,1 54771U 22175P   23261.05287816  .00000341  00000-0  39476-4 0  9993,2 54771  53.2166 135.5042 0001339  86.6878 273.4268 15.08850520 41414,6917.848,95.437,540.64,538.787,0.0
54771.0,STARLINK-5451,PAYLOAD,2023-09-18 20:20:46,15.08843701,0.0001291,53.2163,131.936,83.7013,276.4126,5.1646e-05,5.34e-06,0.0,0 STARLINK-5451,1 54771U 22175P   23261.84776130  .00000534  00000-0  51646-4 0  9999,2 54771  53.2163 131.9360 0001291  83.7013 276.4126 15.08843701 43691,6917.869,95.437,540.627,538.841,0.0
54771.0,STARLINK-5451,PAYLOAD,2023-09-19 01:06:55,15.08846625,0.0001354,53.2173,131.0424,96.2001,263.9146,7.0172e-05,8.29e-06,0.0,0 STARLINK-5451,1 54771U 22175P   23262.04647780  .00000829  00000-0  70172-4 0  9992,2 54771  53.2173 131.0424 0001354  96.2001 263.9146 15.08846625 41565,6917.86,95.437,540.662,538.788,0.0
54771.0,STARLINK-5451,PAYLOAD,2023-09-20 00:57:42,15.08853704,0.00014,53.2172,126.5812,103.9388,256.176,6.693e-05,7.78e-06,0.0,0 STARLINK-5451,1 54771U 22175P   23263.04006968  .00000778  00000-0  66930-4 0  9990,2 54771  53.2172 126.5812 0001400 103.9388 256.1760 15.08853704 43878,6917.839,95.437,540.672,538.735,0.0
54771.0,STARLINK-5451,PAYLOAD,2023-09-20 18:26:58,15.08828305,0.0001322,53.2172,123.31,86.6424,273.472,-7.7457e-05,-1.52e-05,0.0,0 STARLINK-5451,1 54771U 22175P   23263.76873563 -.00001520  00000-0 -77457-4 0  9996,2 54771  53.2172 123.3100 0001322  86.6424 273.4720 15.08828305 41824,6917.916,95.438,540.696,538.867,0.0
54771.0,STARLINK-5451,PAYLOAD,2023-09-20 21:37:45,15.08826742,0.0001544,53.217,122.7163,124.814,235.2997,-9.9874e-05,-1.877e-05,0.0,0 STARLINK-5451,1 54771U 22175P   23263.90121617 -.00001877  00000-0 -99874-4 0  9990,2 54771  53.2170 122.7163 0001544 124.8140 235.2997 15.08826742 44008,6917.921,95.438,540.854,538.718,0.0
54771.0,STARLINK-5451,PAYLOAD,2023-09-21 13:31:36,15.08825677,0.0001776,53.2165,119.738,120.7228,239.394,-8.8854e-05,-1.701e-05,0.0,0 STARLINK-5451,1 54771U 22175P   23264.56362261 -.00001701  00000-0 -88854-4 0  9997,2 54771  53.2165 119.7380 0001776 120.7228 239.3940 15.08825677 44108,6917.924,95.438,541.018,538.561,0.0
54771.0,STARLINK-5451,PAYLOAD,2023-09-21 18:17:45,15.08836731,0.0001356,53.2167,118.8524,102.866,257.2483,-1.278e-05,-4.91e-06,0.0,0 STARLINK-5451,1 54771U 22175P   23264.76233452 -.00000491  00000-0 -12780-4 0  9998,2 54771  53.2167 118.8524 0001356 102.8660 257.2483 15.08836731 41971,6917.89,95.438,540.693,538.817,0.0
54771.0,STARLINK-5451,PAYLOAD,2023-09-21 21:28:31,15.08839425,0.000128,53.2163,118.2586,95.6436,264.4702,2.9824e-05,1.87e-06,0.0,0 STARLINK-5451,1 54771U 22175P   23264.89481255  .00000187  00000-0  29824-4 0  9995,2 54771  53.2163 118.2586 0001280  95.6436 264.4702 15.08839425 44155,6917.882,95.438,540.633,538.862,0.0
54771.0,STARLINK-5451,PAYLOAD,2023-09-22 00:39:17,15.0884311,0.0001358,53.2163,117.6624,106.7043,253.4099,6.4979e-05,7.46e-06,0.0,0 STARLINK-5451,1 54771U 22175P   23265.02728950  .00000746  00000-0  64979-4 0  9998,2 54771  53.2163 117.6624 0001358 106.7043 253.4099 15.08843110 42011,6917.871,95.437,540.675,538.796,0.0
54771.0,STARLINK-5451,PAYLOAD,2023-09-22 13:22:23,15.08833689,0.0001313,53.216,115.2836,101.1511,258.9629,0.00024463,3.607e-05,0.0,0 STARLINK-5451,1 54771U 22175P   23265.55721524  .00003607  00000-0  24463-3 0  9998,2 54771  53.2160 115.2836 0001313 101.1511 258.9629 15.08833689 44254,6917.9,95.438,540.673,538.856,0.0
54771.0,STARLINK-5451,PAYLOAD,2023-09-22 21:19:18,15.08842796,0.0001331,53.2162,113.7974,101.3155,258.7987,0.00032441,4.879e-05,0.0,0 STARLINK-5451,1 54771U 22175P   23265.88841169  .00004879  00000-0  32441-3 0  9999,2 54771  53.2162 113.7974 0001331 101.3155 258.7987 15.08842796 44308,6917.872,95.437,540.658,538.816,0.0
54771.0,STARLINK-5451,PAYLOAD,2023-09-22 22:54:41,15.08848623,0.0001361,53.2156,113.5,99.926,260.1886,0.00039715,6.04e-05,0.0,0 STARLINK-5451,1 54771U 22175P   23265.95465190  .00006040  00000-0  39715-3 0  9996,2 54771  53.2156 113.5000 0001361  99.9260 260.1886 15.08848623 44312,6917.854,95.437,540.661,538.778,0.0
54771.0,STARLINK-5451,PAYLOAD,2023-09-23 17:59:19,15.08846131,0.0001689,53.2162,109.9306,97.4421,262.6763,6.9101e-05,8.12e-06,0.0,0 STARLINK-5451,1 54771U 22175P   23266.74953257  .00000812  00000-0  69101-4 0  9994,2 54771  53.2162 109.9306 0001689  97.4421 262.6763 15.08846131 42278,6917.862,95.437,540.895,538.558,0.0
54771.0,STARLINK-5451,PAYLOAD,2023-09-24 13:03:57,15.08841355,0.0001297,53.2158,106.3628,84.7829,275.3311,5.001e-05,5.08e-06,0.0,0 STARLINK-5451,1 54771U 22175P   23267.54441461  .00000508  00000-0  50010-4 0  9993,2 54771  53.2158 106.3628 0001297  84.7829 275.3311 15.08841355 44553,6917.876,95.437,540.638,538.844,0.0
54771.0,STARLINK-5451,PAYLOAD,2023-09-24 19:25:29,15.08844948,0.0001285,53.2157,105.1734,82.9915,277.1224,5.6205e-05,6.07e-06,0.0,0 STARLINK-5451,1 54771U 22175P   23267.80937271  .00000607  00000-0  56205-4 0  9993,2 54771  53.2157 105.1734 0001285  82.9915 277.1224 15.08844948 42439,6917.865,95.437,540.619,538.841,0.0
54771.0,STARLINK-5451,PAYLOAD,2023-09-24 21:00:52,15.08846482,0.0001291,53.2158,104.876,83.2525,276.8614,8.1422e-05,1.008e-05,0.0,0 STARLINK-5451,1 54771U 22175P   23267.87561185  .00001008  00000-0  81422-4 0  9992,2 54771  53.2158 104.8760 0001291  83.2525 276.8614 15.08846482 44608,6917.861,95.437,540.619,538.832,0.0
54771.0,STARLINK-5451,PAYLOAD,2023-09-25 12:54:44,15.08845487,0.0001225,53.2157,101.902,88.4424,271.6708,0.00013647,1.885e-05,0.0,0 STARLINK-5451,1 54771U 22175P   23268.53801201  .00001885  00000-0  13647-3 0  9998,2 54771  53.2157 101.9020 0001225  88.4424 271.6708 15.08845487 44708,6917.864,95.437,540.576,538.881,0.0
54771.0,STARLINK-5451,PAYLOAD,2023-09-25 19:16:16,15.0885025,0.0001208,53.2156,100.7127,87.2143,272.8987,0.00020197,2.929e-05,0.0,0 STARLINK-5451,1 54771U 22175P   23268.80296908  .00002929  00000-0  20197-3 0  9998,2 54771  53.2156 100.7127 0001208  87.2143 272.8987 15.08850250 44748,6917.849,95.437,540.55,538.878,0.0
54771.0,STARLINK-5451,PAYLOAD,2023-09-26 19:07:04,15.08840475,0.0001357,53.2151,96.2522,84.9485,275.1662,0.00011215,1.497e-05,0.0,0 STARLINK-5451,1 54771U 22175P   23269.79657577  .00001497  00000-0  11215-3 0  9990,2 54771  53.2151  96.2522 0001357  84.9485 275.1662 15.08840475 42730,6917.879,95.438,540.683,538.805,0.0
